FLOCK 4G-6              
1 62660U 25009BD  26068.71061311  .00012261  00000+0  45910-3 0  9991
2 62660  97.3980 150.7943 0002380 348.2637  11.8546 15.27432125121307
STARLINK-35777          
1 66975U 25288S   26068.30416733  .00031837  00000+0  11605-2 0  9993
2 66975  43.0009  26.0425 0001264 270.6434  89.4272 15.27607847 15228
